#dP2022 10  7  0  0  0.00000000     289 d+D   IGS14 FIT AIUB
## 2230 432000.00000000   300.00000000 59859 0.0000000000000
+  117   G01G02G03G04G05G06G07G08G09G10G11G12G13G14G15G16G17
+        G18G19G20G21G22G23G24G25G26G27G28G29G30G31G32R01R02
+        R03R04R05R07R08R09R11R12R13R14R15R17R18R19R20R21R24
+        E01E02E03E04E05E07E08E09E10E11E12E13E14E15E18E19E21
+        E24E25E26E27E30E31E33E34E36C06C07C08C09C10C11C12C13
+        C14C16C19C20C21C22C23C24C25C26C27C28C29C30C32C33C34
+        C35C36C37C38C39C40C41C42C43C44C45C46J02J03J04  0  0
++         5  5  5  5  5  5  5  5  5  5  5  5  5  5  5  5  5
++         5  5  5  5  5  5  5  5  5  5  5  5  5  5  5  5  5
++         5  5  5  5  5  5  5  5  5  5  5  5  5  5  5  5  5
++         5  5  5  5  5  5  5  5  5  5  5  5  5  5  5  5  5
++         5  5  5  5  5  5  5  5  5  5  5  5  5  5  5  5  5
++         5  5  5  5  5  5  5  5  5  5  5  5  5  5  5  5  5
++         5  5  5  5  5  5  5  5  5  5  5  5  5  5  5  0  0
%c M  cc GPS ccc cccc cccc cccc cccc ccccc ccccc ccccc ccccc
%c cc cc ccc ccc cccc cccc cccc cccc ccccc ccccc ccccc ccccc
%f  1.2500000  1.025000000  0.00000000000  0.000000000000000
%f  0.0000000  0.000000000  0.00000000000  0.000000000000000
%i    0    0    0    0      0      0      0      0         0
%i    0    0    0    0      0      0      0      0         0
/* Center for Orbit Determination in Europe (CODE)                              
/* MGEX orbits and clocks for year-day 2022-2800                                
/* Middle day of a 3-day long-arc multi-GNSS solution                           
/* Systems considered: GPS/GLONASS/Galileo/BeiDou/QZSS                          
/* Product reference - DOI 10.7892/boris.75882.3                                
/* PCV:IGS14      OL/AL:FES2014b NONE     YN ORB:CoN CLK:CoN                    
*  2022 10  7  8 25  0.00000000
PG01  17407.011495   6490.892387  18806.180701    271.525398
PG02 -18856.730952  -9237.518683 -15545.248271   -643.328160
PG03  17349.735927  -2731.084274  19768.024609   -361.576960
PG04  26585.299698    968.648114   -836.884750   -107.454639
PG05 -12378.164737  -9070.723588 -21845.950866    -99.454520
PG06  -5008.309016 -23874.398010  10473.553724    483.993853
PG07  11740.813261 -10016.999134 -21154.012080    301.097967
PG08  24319.125322   6391.058370  -9138.367178    -87.759463
PG09  22615.507704  -8051.440003 -11491.211280   -286.502782
PG10 -10637.664103  23720.652675   4705.646719     -6.452608
PG11 -11996.750578 -23704.817780   -825.015474    -23.182451
PG12 -17533.985012   1345.987718  19607.111905   -289.370296
PG13 -18102.467516 -13114.038223 -14656.496918    401.489813
PG14  12841.289127 -23019.319123   2734.865984    -97.434302
PG15 -24828.420450  -4259.302037  -9308.250045    -22.929063
PG16   6662.624152  15219.913790 -20895.218410   -525.807386
PG17  10795.342796 -13177.500825  20834.677101    666.390187
PG18 -10497.389470  11525.393842 -21489.957231     23.249817
PG19  -1201.835625 -14958.086717  21698.142336    220.549714
PG20  -3797.339841 -21086.705975 -15831.239945    480.380850
PG21  19732.909102  13387.758230  13053.837400    158.408093
PG22   4330.289291  15562.254861  21532.616809    341.229430
PG23 -16196.575739  20087.619222  -6002.087529     -0.815714
PG24 -19616.500371  -9283.723269  15261.307984    109.035098
PG25 -18611.970795  13372.593553  12892.843829    379.846181
PG26    192.411708  22240.733633 -14359.701512    231.530424
PG27  15303.298684  12679.788944 -18028.017411    201.881249
PG28   6779.637411 -23062.789068  12065.970738    331.888083
PG29 -23832.292097   4900.579613 -10793.114060   -557.684047
PG30   3362.084078 -20104.899744 -16802.723883   -537.221864
PG31   5279.546235  24111.217337   9018.834873   -195.941420
PG32  -6807.896911  14733.568073  21138.427354   -255.754567
PR01  -6938.970020  13923.636539  20211.207110     15.851461
PR02  12333.256207   5793.623402  21614.466002    -22.922680
PR03  23081.712164  -5016.448884   9746.963466     65.013514
PR04  20892.712176 -12678.622880  -7317.804797    160.256212
PR05   7345.626033 -13469.382130 -20383.623638    100.808553
PR07 -23212.548719   5455.229759  -8954.149758     42.129677
PR08 -20685.592768  12872.729339   7547.056879    -67.562947
PR09  -7096.035753 -17247.081764  17384.033621     80.676828
PR11  -9348.690139  17475.091237  16081.164675     25.231030
PR12  -1974.242450  25376.379690  -1511.188093     21.784433
PR13   6137.791014  18548.088599 -16409.517550    -27.595190
PR14  11212.694502   -572.500328 -22887.465517     24.192791
PR15   9333.712514 -18172.422657 -15248.893681     93.320666
PR17  20452.523797   7925.087397  12988.485130    566.978086
PR18  10977.431180  -4395.756275  22623.372059     45.913987
PR19  -2717.292677 -14160.058246  21047.035929   -206.403875
PR20 -17950.347370 -17379.961974   5067.479857    -79.777645
PR21 -19939.849256  -7020.785870 -14301.362456   -339.643038
PR24  18703.183571  16777.034056  -4311.160557    118.865943
PE01  18512.436412  -1857.787703 -23015.035219   -542.172925
PE02 -18562.739429   2032.170527  22967.101022    329.243361
PE03 -29449.789128   -259.965644  -3034.132621   -607.288039
PE04  22928.011334 -11750.098919 -14577.510709  -1131.375880
PE05 -18780.159679 -12381.597234 -19243.885832   -136.893434
PE07  -2627.218256  17111.146667  24009.151381   -711.291664
PE08 -22868.029197  11749.058165  14671.754221   -611.269754
PE09   2747.952165 -16976.998827 -24094.915617   -684.608435
PE10   3834.948636 -19513.734836  21921.839001   -481.966215
PE11  -5021.917240 -24986.625507  15042.489783   1900.570980
PE12  11608.020048 -11438.394916  24706.442497   -209.037136
PE13   4413.330529  24671.383264 -15742.504635    430.662869
PE14  13442.865059  17020.709417 -19035.430598     20.738234
PE15 -11688.840957  11195.879960 -24778.578653    715.643738
PE18 -26915.638930  -8215.783135   6603.429225   -890.062360
PE19  29007.775793   2074.922620   5528.985236  -4331.875660
PE21   8879.776503  16863.374439 -22640.736303   -762.015123
PE24   7370.800855 -27428.800685   8374.543056   -877.706063
PE25  -8671.022814 -17130.513170  22541.929880   -589.562346
PE26  18124.912855  23158.047716   3306.872439  -1698.811190
PE27  -6517.487508  27326.272764  -9299.902786   -409.554395
PE30 -18296.275359  20958.191049  10085.543849   -896.515426
PE31  17915.703467 -21623.502263  -9354.987078   -505.186181
PE33  20791.983152   8791.528289  19146.031307   -454.460164
PE34 -20787.737660  -8592.004137 -19257.616269     -8.228224
PE36 -17769.900996 -23549.860829  -2436.406160   -442.300204
PC06  -3350.736656  26138.866691  32969.980010    902.436105
PC07 -18453.797345  32388.397022 -19803.099106   -242.940253
PC08  -6943.865499  39989.322149 -11054.117922    489.003652
PC09   6370.198469  30219.767010  29302.281283   -841.923521
PC10 -11428.585692  32436.405336 -24403.619864     87.014104
PC11 -25404.400716 -11220.903114  -2872.522904   -365.746200
PC12 -15693.818873 -18386.256335  14004.080270   -491.498122
PC13  -1340.471796  41888.339756  -2766.953109    100.351772
PC14 -21106.036272   -846.909825 -18252.615911    704.072489
PC16  -7641.234010  23521.915314  34361.922036    131.553181
PC19  24476.173747  -7371.475324  11193.943029   -820.913314
PC20  15575.108369   7544.978264  21889.191259    869.824549
PC21   3372.580788 -18983.953389 -20161.780494   -551.691575
PC22  19644.940544 -18704.260029  -6521.751183   -864.825403
PC23 -10549.202175  19878.575659  16506.239520   -438.480403
PC24 -12165.248978 -20194.259557  14947.231107   -495.950267
PC25 -16205.007168   1407.209525  22669.377589      6.118729
PC26  -2620.436659 -27802.900711     62.566571    -18.067409
PC27   7056.531907  18683.059149 -19511.618558     32.132603
PC28 -11963.564475  11415.698904 -22475.836207     21.430520
PC29  25130.148884   2356.080623  11893.050941     23.454772
PC30  22743.601343  15004.561158  -6069.252198      0.319545
PC32  -3332.176051  19064.475487  20112.021026   -770.109505
PC33 -24433.253763   7439.857477 -11261.107933   -850.072778
PC34 -23309.456421 -14499.596767   4965.235107     11.225006
PC35  13014.035078 -10998.729944  22097.743871     30.603352
PC36  16263.778272   -358.113377 -22646.509655   -567.450327
PC37   1103.452450  27845.718504   1188.313513   -429.907175
PC38 -11392.004529  36400.917258 -17754.769589     29.334070
PC39 -12021.138260  20876.807336  34620.809878     -0.633036
PC40 -26052.534945  27174.428480 -19198.469374     -5.613233
PC41 -19896.827978  18626.176150   6032.253449   -149.247990
PC42 -14667.138933  -8452.349427 -22153.005556   -429.380620
PC43 -25370.197812  -2947.708026 -11232.618116     18.199346
PC44  -7446.736348 -18482.688709  19517.042213     73.684151
PC45  10259.360072 -20198.963629 -16305.422400     -6.870082
PC46  12843.665200  18674.877213 -16247.925844     -4.759740
PJ02 -32236.095808  25938.371793  13009.651277     -6.652501
PJ03 -24435.119040  17551.624406 -24956.983050     -2.542277
PJ04 -26173.817015  33207.291029   4920.484612    111.674382
EOF
